NORAD_CAT_ID,OBJECT_NAME,OBJECT_TYPE,EPOCH,MEAN_MOTION,ECCENTRICITY,INCLINATION,RA_OF_ASC_NODE,ARG_OF_PERICENTER,MEAN_ANOMALY,BSTAR,MEAN_MOTION_DOT,MEAN_MOTION_DDOT,TLE_LINE0,TLE_LINE1,TLE_LINE2,SEMIMAJOR_AXIS,PERIOD,APOGEE,PERIGEE,DECAYED
51126.0,STARLINK-3386,PAYLOAD,2024-06-29 06:35:09,15.08832873,0.0001249,53.2147,195.3065,92.594,267.5195,5.2197e-05,5.43e-06,0.0,0 STARLINK-3386,1 51126U 22005Y   24181.27441997  .00000543  00000-0  52197-4 0  9993,2 51126  53.2147 195.3065 0001249  92.5940 267.5195 15.08832873135383,6917.902,95.438,540.631,538.903,0.0
51126.0,STARLINK-3386,PAYLOAD,2024-06-29 17:42:52,15.08831454,0.0001262,53.2147,193.2246,91.7742,268.3395,3.7434e-05,3.08e-06,0.0,0 STARLINK-3386,1 51126U 22005Y   24181.73810383  .00000308  00000-0  37434-4 0  9999,2 51126  53.2147 193.2246 0001262  91.7742 268.3395 15.08831454135450,6917.907,95.438,540.645,538.898,0.0
51126.0,STARLINK-3386,PAYLOAD,2024-06-30 04:50:33,15.08898881,0.0001047,53.2134,191.142,71.9983,288.1123,-0.00081351,-0.00013232,0.0,0 STARLINK-3386,1 51126U 22005Y   24182.20177137 -.00013232  00000-0 -81351-3 0  9993,2 51126  53.2134 191.1420 0001047  71.9983 288.1123 15.08898881136632,6917.7,95.434,540.29,538.841,0.0
51126.0,STARLINK-3386,PAYLOAD,2024-06-30 09:36:43,15.08838845,0.0001283,53.2148,190.2502,90.6114,269.5025,5.0496e-05,5.16e-06,0.0,0 STARLINK-3386,1 51126U 22005Y   24182.40050044  .00000516  00000-0  50496-4 0  9998,2 51126  53.2148 190.2502 0001283  90.6114 269.5025 15.08838845136665,6917.884,95.438,540.636,538.861,0.0
51126.0,STARLINK-3386,PAYLOAD,2024-06-30 11:12:06,15.08838199,0.0001278,53.2148,189.9532,92.1574,267.9564,4.5946e-05,4.43e-06,0.0,0 STARLINK-3386,1 51126U 22005Y   24182.46674097  .00000443  00000-0  45946-4 0  9997,2 51126  53.2148 189.9532 0001278  92.1574 267.9564 15.08838199135564,6917.886,95.438,540.635,538.867,0.0
51126.0,STARLINK-3386,PAYLOAD,2024-06-30 17:33:41,15.08807821,0.0001608,53.2135,188.7626,80.4911,279.6263,-0.00016626,-2.931e-05,0.0,0 STARLINK-3386,1 51126U 22005Y   24182.73173214 -.00002931  00000-0 -16626-3 0  9990,2 51126  53.2135 188.7626 0001608  80.4911 279.6263 15.08807821136715,6917.979,95.44,540.956,538.731,0.0
51126.0,STARLINK-3386,PAYLOAD,2024-07-01 04:41:23,15.08809214,6.03e-05,53.2137,186.6795,87.1008,273.0053,-0.00010868,-2.015e-05,0.0,0 STARLINK-3386,1 51126U 22005Y   24183.19541343 -.00002015  00000-0 -10868-3 0  9998,2 51126  53.2137 186.6795 0000603  87.1008 273.0053 15.08809214136786,6917.974,95.44,540.257,539.422,0.0
51126.0,STARLINK-3386,PAYLOAD,2024-07-01 09:27:31,15.08836617,0.0001302,53.2149,185.7894,95.776,264.338,0.00014105,1.957e-05,0.0,0 STARLINK-3386,1 51126U 22005Y   24183.39411226  .00001957  00000-0  14105-3 0  9996,2 51126  53.2149 185.7894 0001302  95.7760 264.3380 15.08836617136813,6917.891,95.438,540.656,538.855,0.0
51126.0,STARLINK-3386,PAYLOAD,2024-07-01 17:24:26,15.08839974,0.0001283,53.215,184.3025,96.4181,263.6958,0.0001539,2.162e-05,0.0,0 STARLINK-3386,1 51126U 22005Y   24183.72531060  .00002162  00000-0  15390-3 0  9998,2 51126  53.2150 184.3025 0001283  96.4181 263.6958 15.08839974135753,6917.88,95.438,540.633,538.858,0.0
51126.0,STARLINK-3386,PAYLOAD,2024-07-02 04:32:08,15.08847827,0.000148,53.2154,182.2205,92.3306,267.7855,0.00017514,2.501e-05,0.0,0 STARLINK-3386,1 51126U 22005Y   24184.18898659  .00002501  00000-0  17514-3 0  9996,2 51126  53.2154 182.2205 0001480  92.3306 267.7855 15.08847827136935,6917.856,95.437,540.745,538.698,0.0
51126.0,STARLINK-3386,PAYLOAD,2024-07-02 09:18:17,15.08849624,0.0001308,53.215,181.3285,99.0916,261.0224,0.00018056,2.588e-05,0.0,0 STARLINK-3386,1 51126U 22005Y   24184.38770404  .00002588  00000-0  18056-3 0  9992,2 51126  53.2150 181.3285 0001308  99.0916 261.0224 15.08849624135853,6917.851,95.437,540.621,538.811,0.0
51126.0,STARLINK-3386,PAYLOAD,2024-07-02 17:15:13,15.08850478,0.0001289,53.2149,179.8413,102.7025,257.4111,0.00020334,2.951e-05,0.0,0 STARLINK-3386,1 51126U 22005Y   24184.71890099  .00002951  00000-0  20334-3 0  9998,2 51126  53.2149 179.8413 0001289 102.7025 257.4111 15.08850478135906,6917.848,95.437,540.605,538.822,0.0
51126.0,STARLINK-3386,PAYLOAD,2024-07-03 04:22:57,15.08794262,0.0001312,53.2151,177.76,101.737,258.3769,0.00088202,0.0001376,0.0,0 STARLINK-3386,1 51126U 22005Y   24185.18260488  .00013760  00000-0  88202-3 0  9991,2 51126  53.2151 177.7600 0001312 101.7370 258.3769 15.08794262137081,6918.02,95.44,540.793,538.978,0.0
51126.0,STARLINK-3386,PAYLOAD,2024-07-03 09:09:04,15.08853063,0.0001343,53.215,176.8678,96.1584,263.9562,7.2138e-05,8.61e-06,0.0,0 STARLINK-3386,1 51126U 22005Y   24185.38130395  .00000861  00000-0  72138-4 0  9996,2 51126  53.2150 176.8678 0001343  96.1584 263.9562 15.08853063137115,6917.84,95.437,540.635,538.776,0.0
51126.0,STARLINK-3386,PAYLOAD,2024-07-03 17:05:59,15.08854275,0.0001337,53.215,175.3809,95.9664,264.1481,6.8381e-05,8.01e-06,0.0,0 STARLINK-3386,1 51126U 22005Y   24185.71249993  .00000801  00000-0  68381-4 0  9997,2 51126  53.2150 175.3809 0001337  95.9664 264.1481 15.08854275136055,6917.837,95.437,540.627,538.777,0.0
51126.0,STARLINK-3386,PAYLOAD,2024-07-04 04:13:42,15.08848053,0.0001319,53.2165,173.298,104.9137,255.2001,-2.2241e-05,-6.42e-06,0.0,0 STARLINK-3386,1 51126U 22005Y   24186.17618193 -.00000642  00000-0 -22241-4 0  9990,2 51126  53.2165 173.2980 0001319 104.9137 255.2001 15.08848053137231,6917.856,95.437,540.633,538.808,0.0
51126.0,STARLINK-3386,PAYLOAD,2024-07-04 08:59:51,15.08849209,0.0001293,53.2167,172.4071,95.3099,264.8041,-7.2614e-05,-1.444e-05,0.0,0 STARLINK-3386,1 51126U 22005Y   24186.37490186 -.00001444  00000-0 -72614-4 0  9992,2 51126  53.2167 172.4071 0001293  95.3099 264.8041 15.08849209136150,6917.852,95.437,540.612,538.823,0.0
51126.0,STARLINK-3386,PAYLOAD,2024-07-05 05:39:52,15.08842742,0.0001362,53.217,168.5417,95.844,264.2707,-4.7498e-05,-1.044e-05,0.0,0 STARLINK-3386,1 51126U 22005Y   24187.23602112 -.00001044  00000-0 -47498-4 0  9990,2 51126  53.2170 168.5417 0001362  95.8440 264.2707 15.08842742137391,6917.872,95.437,540.679,538.795,0.0
51126.0,STARLINK-3386,PAYLOAD,2024-07-05 15:12:10,15.08845875,0.0001363,53.2172,166.7575,95.5479,264.5668,-1.6709e-05,-5.54e-06,0.0,0 STARLINK-3386,1 51126U 22005Y   24187.63345694 -.00000554  00000-0 -16709-4 0  9999,2 51126  53.2172 166.7575 0001363  95.5479 264.5668 15.08845875136341,6917.862,95.437,540.67,538.785,0.0
51126.0,STARLINK-3386,PAYLOAD,2024-07-06 05:30:39,15.08833871,0.0001346,53.2173,164.0845,96.7934,263.3211,-1.0382e-05,-4.53e-06,0.0,0 STARLINK-3386,1 51126U 22005Y   24188.22962526 -.00000453  00000-0 -10382-4 0  9993,2 51126  53.2173 164.0845 0001346  96.7934 263.3211 15.08833871137540,6917.899,95.438,540.695,538.833,0.0
51126.0,STARLINK-3386,PAYLOAD,2024-07-06 21:24:31,15.08820854,0.0001305,53.2184,161.111,95.6634,264.4507,0.00029368,4.387e-05,0.0,0 STARLINK-3386,1 51126U 22005Y   24188.89202704  .00004387  00000-0  29368-3 0  9992,2 51126  53.2184 161.1110 0001305  95.6634 264.4507 15.08820854136530,6917.939,95.439,540.707,538.901,0.0
51126.0,STARLINK-3386,PAYLOAD,2024-07-07 06:56:49,15.08836985,0.0001444,53.2178,159.3256,96.847,263.2687,3.8395e-05,3.23e-06,0.0,0 STARLINK-3386,1 51126U 22005Y   24189.28946380  .00000323  00000-0  38395-4 0  9998,2 51126  53.2178 159.3256 0001444  96.8470 263.2687 15.08836985137706,6917.89,95.438,540.754,538.756,0.0
51126.0,STARLINK-3386,PAYLOAD,2024-07-08 06:47:36,15.08837442,0.0001441,53.2176,154.8649,94.6759,265.4398,4.253e-05,3.89e-06,0.0,0 STARLINK-3386,1 51126U 22005Y   24190.28306559  .00000389  00000-0  42530-4 0  9996,2 51126  53.2176 154.8649 0001441  94.6759 265.4398 15.08837442136748,6917.888,95.438,540.75,538.756,0.0
51126.0,STARLINK-3386,PAYLOAD,2024-07-08 14:44:32,15.08841832,0.0001398,53.2172,153.3777,88.6244,271.4909,4.5972e-05,4.44e-06,0.0,0 STARLINK-3386,1 51126U 22005Y   24190.61426304  .00000444  00000-0  45972-4 0  9999,2 51126  53.2172 153.3777 0001398  88.6244 271.4909 15.08841832137905,6917.875,95.437,540.707,538.773,0.0
51126.0,STARLINK-3386,PAYLOAD,2024-07-09 05:03:00,15.08836795,0.0001395,53.2167,150.7011,87.4353,272.6799,3.0662e-05,2e-06,0.0,0 STARLINK-3386,1 51126U 22005Y   24191.21042785  .00000200  00000-0  30662-4 0  9993,2 51126  53.2167 150.7011 0001395  87.4353 272.6799 15.08836795137997,6917.89,95.438,540.72,538.79,0.0
51126.0,STARLINK-3386,PAYLOAD,2024-07-09 14:35:18,15.08849694,0.0001395,53.2169,148.9159,82.6465,277.4686,4.7983e-05,4.76e-06,0.0,0 STARLINK-3386,1 51126U 22005Y   24191.60785842  .00000476  00000-0  47983-4 0  9993,2 51126  53.2169 148.9159 0001395  82.6465 277.4686 15.08849694136946,6917.851,95.437,540.681,538.751,0.0
51126.0,STARLINK-3386,PAYLOAD,2024-07-10 03:18:25,15.08829537,0.0001245,53.2168,146.5347,92.9507,267.1628,-5.1801e-05,-1.112e-05,0.0,0 STARLINK-3386,1 51126U 22005Y   24192.13779503 -.00001112  00000-0 -51801-4 0  9993,2 51126  53.2168 146.5347 0001245  92.9507 267.1628 15.08829537138132,6917.912,95.438,540.639,538.916,0.0
51126.0,STARLINK-3386,PAYLOAD,2024-07-10 14:26:06,15.08840336,0.0001449,53.2169,144.4536,92.297,267.8188,2.9488e-05,1.81e-06,0.0,0 STARLINK-3386,1 51126U 22005Y   24192.60146695  .00000181  00000-0  29488-4 0  9994,2 51126  53.2169 144.4536 0001449  92.2970 267.8188 15.08840336137095,6917.879,95.438,540.747,538.742,0.0
51126.0,STARLINK-3386,PAYLOAD,2024-07-11 06:19:57,15.08843481,0.0001534,53.2176,141.4785,95.6701,264.4466,4.8061e-05,4.77e-06,0.0,0 STARLINK-3386,1 51126U 22005Y   24193.26386515  .00000477  00000-0  48061-4 0  9990,2 51126  53.2176 141.4785 0001534  95.6701 264.4466 15.08843481137197,6917.87,95.437,540.796,538.674,0.0
51126.0,STARLINK-3386,PAYLOAD,2024-07-12 02:59:59,15.08822688,0.0001389,53.2169,137.6146,98.3377,261.7773,0.00036675,5.551e-05,0.0,0 STARLINK-3386,1 51126U 22005Y   24194.12499034  .00005551  00000-0  36675-3 0  9992,2 51126  53.2169 137.6146 0001389  98.3377 261.7773 15.08822688138439,6917.933,95.439,540.759,538.837,0.0
